[{"OBJECT_NAME":"NOAA 1","OBJECT_ID":"1970-106A","EPOCH":"2026-03-04T13:35:23.142048","MEAN_MOTION":12.54049214,"ECCENTRICITY":0.0031699,"INCLINATION":101.3524,"RA_OF_ASC_NODE":102.8124,"ARG_OF_PERICENTER":190.9061,"MEAN_ANOMALY":337.7085,"EPHEMERIS_TYPE":0,"CLASSIFICATION_TYPE":"U","NORAD_CAT_ID":4793,"ELEMENT_SET_NO":999,"REV_AT_EPOCH":52757,"BSTAR":0.00011407,"MEAN_MOTION_DOT":-2.4e-7,"MEAN_MOTION_DDOT":0},{"OBJECT_NAME":"NOAA 2 (ITOS-D)","OBJECT_ID":"1972-082A","EPOCH":"2026-03-04T19:28:45.084288","MEAN_MOTION":12.53211682,"ECCENTRICITY":0.000402,"INCLINATION":102.0168,"RA_OF_ASC_NODE":81.2096,"ARG_OF_PERICENTER":14.6066,"MEAN_ANOMALY":158.0459,"EPHEMERIS_TYPE":0,"CLASSIFICATION_TYPE":"U","NORAD_CAT_ID":6235,"ELEMENT_SET_NO":999,"REV_AT_EPOCH":44187,"BSTAR":7.6092e-5,"MEAN_MOTION_DOT":-3.4e-7,"MEAN_MOTION_DDOT":0},{"OBJECT_NAME":"NOAA 3","OBJECT_ID":"1973-086A","EPOCH":"2026-03-04T12:33:32.789088","MEAN_MOTION":12.40391639,"ECCENTRICITY":0.0006191,"INCLINATION":102.2909,"RA_OF_ASC_NODE":76.4514,"ARG_OF_PERICENTER":318.6513,"MEAN_ANOMALY":163.1797,"EPHEMERIS_TYPE":0,"CLASSIFICATION_TYPE":"U","NORAD_CAT_ID":6920,"ELEMENT_SET_NO":999,"REV_AT_EPOCH":36892,"BSTAR":5.9710377e-5,"MEAN_MOTION_DOT":-3.8e-7,"MEAN_MOTION_DDOT":0},{"OBJECT_NAME":"NOAA 4","OBJECT_ID":"1974-089A","EPOCH":"2026-03-04T12:58:29.146368","MEAN_MOTION":12.53201532,"ECCENTRICITY":0.0009158,"INCLINATION":102.0074,"RA_OF_ASC_NODE":75.2167,"ARG_OF_PERICENTER":38.5022,"MEAN_ANOMALY":83.9511,"EPHEMERIS_TYPE":0,"CLASSIFICATION_TYPE":"U","NORAD_CAT_ID":7529,"ELEMENT_SET_NO":999,"REV_AT_EPOCH":34641,"BSTAR":-7.3023e-6,"MEAN_MOTION_DOT":-4.8e-7,"MEAN_MOTION_DDOT":0},{"OBJECT_NAME":"NOAA 5","OBJECT_ID":"1976-077A","EPOCH":"2026-03-04T17:38:04.999776","MEAN_MOTION":12.37828217,"ECCENTRICITY":0.0009773,"INCLINATION":102.2953,"RA_OF_ASC_NODE":49.2157,"ARG_OF_PERICENTER":169.6724,"MEAN_ANOMALY":189.7843,"EPHEMERIS_TYPE":0,"CLASSIFICATION_TYPE":"U","NORAD_CAT_ID":9057,"ELEMENT_SET_NO":999,"REV_AT_EPOCH":24154,"BSTAR":3.9051e-5,"MEAN_MOTION_DOT":-4.1e-7,"MEAN_MOTION_DDOT":0},{"OBJECT_NAME":"TIROS N","OBJECT_ID":"1978-096A","EPOCH":"2026-03-04T07:30:38.751264","MEAN_MOTION":14.19335797,"ECCENTRICITY":0.00104295,"INCLINATION":98.4638,"RA_OF_ASC_NODE":89.0712,"ARG_OF_PERICENTER":180.4332,"MEAN_ANOMALY":179.6838,"EPHEMERIS_TYPE":0,"CLASSIFICATION_TYPE":"U","NORAD_CAT_ID":11060,"ELEMENT_SET_NO":999,"REV_AT_EPOCH":66387,"BSTAR":0.00014127014,"MEAN_MOTION_DOT":2.55e-6,"MEAN_MOTION_DDOT":0},{"OBJECT_NAME":"NOAA 6","OBJECT_ID":"1979-057A","EPOCH":"2026-03-04T12:47:11.369472","MEAN_MOTION":14.35429324,"ECCENTRICITY":0.0009456,"INCLINATION":98.5757,"RA_OF_ASC_NODE":93.7175,"ARG_OF_PERICENTER":202.4931,"MEAN_ANOMALY":157.5841,"EPHEMERIS_TYPE":0,"CLASSIFICATION_TYPE":"U","NORAD_CAT_ID":11416,"ELEMENT_SET_NO":999,"REV_AT_EPOCH":43594,"BSTAR":0.00017207,"MEAN_MOTION_DOT":4.5e-6,"MEAN_MOTION_DDOT":0},{"OBJECT_NAME":"NOAA 7","OBJECT_ID":"1981-059A","EPOCH":"2026-03-04T03:45:20.775744","MEAN_MOTION":14.17772006,"ECCENTRICITY":0.00110568,"INCLINATION":98.807,"RA_OF_ASC_NODE":131.2541,"ARG_OF_PERICENTER":203.8107,"MEAN_ANOMALY":156.2558,"EPHEMERIS_TYPE":0,"CLASSIFICATION_TYPE":"U","NORAD_CAT_ID":12553,"ELEMENT_SET_NO":999,"REV_AT_EPOCH":30986,"BSTAR":6.9801536e-5,"MEAN_MOTION_DOT":9.8e-7,"MEAN_MOTION_DDOT":0},{"OBJECT_NAME":"NOAA 8","OBJECT_ID":"1983-022A","EPOCH":"2026-03-04T12:22:35.635872","MEAN_MOTION":14.29764551,"ECCENTRICITY":0.0014382,"INCLINATION":98.7374,"RA_OF_ASC_NODE":76.296,"ARG_OF_PERICENTER":200.9088,"MEAN_ANOMALY":159.1507,"EPHEMERIS_TYPE":0,"CLASSIFICATION_TYPE":"U","NORAD_CAT_ID":13923,"ELEMENT_SET_NO":999,"REV_AT_EPOCH":23611,"BSTAR":0.00010001,"MEAN_MOTION_DOT":2.12e-6,"MEAN_MOTION_DDOT":0},{"OBJECT_NAME":"NOAA 9","OBJECT_ID":"1984-123A","EPOCH":"2026-03-04T12:05:16.542816","MEAN_MOTION":14.17037042,"ECCENTRICITY":0.00136929,"INCLINATION":99.11,"RA_OF_ASC_NODE":87.6647,"ARG_OF_PERICENTER":287.4456,"MEAN_ANOMALY":196.0247,"EPHEMERIS_TYPE":0,"CLASSIFICATION_TYPE":"U","NORAD_CAT_ID":15427,"ELEMENT_SET_NO":999,"REV_AT_EPOCH":12859,"BSTAR":0.00010746636,"MEAN_MOTION_DOT":1.69e-6,"MEAN_MOTION_DDOT":0},{"OBJECT_NAME":"NOAA 10","OBJECT_ID":"1986-073A","EPOCH":"2026-03-04T17:37:50.482848","MEAN_MOTION":14.29141886,"ECCENTRICITY":0.0011172,"INCLINATION":98.6996,"RA_OF_ASC_NODE":57.1374,"ARG_OF_PERICENTER":305.0252,"MEAN_ANOMALY":227.8008,"EPHEMERIS_TYPE":0,"CLASSIFICATION_TYPE":"U","NORAD_CAT_ID":16969,"ELEMENT_SET_NO":999,"REV_AT_EPOCH":5449,"BSTAR":0.00010864,"MEAN_MOTION_DOT":2.31e-6,"MEAN_MOTION_DDOT":0},{"OBJECT_NAME":"NOAA 11","OBJECT_ID":"1988-089A","EPOCH":"2026-03-04T20:09:02.526048","MEAN_MOTION":14.15819409,"ECCENTRICITY":0.0010107,"INCLINATION":98.6091,"RA_OF_ASC_NODE":13.0437,"ARG_OF_PERICENTER":234.6592,"MEAN_ANOMALY":125.3639,"EPHEMERIS_TYPE":0,"CLASSIFICATION_TYPE":"U","NORAD_CAT_ID":19531,"ELEMENT_SET_NO":999,"REV_AT_EPOCH":93271,"BSTAR":6.5592e-5,"MEAN_MOTION_DOT":8.7e-7,"MEAN_MOTION_DDOT":0},{"OBJECT_NAME":"NOAA 12","OBJECT_ID":"1991-032A","EPOCH":"2026-03-04T18:34:47.847360","MEAN_MOTION":14.26715624,"ECCENTRICITY":0.0013194,"INCLINATION":98.6148,"RA_OF_ASC_NODE":53.8521,"ARG_OF_PERICENTER":338.1482,"MEAN_ANOMALY":21.9134,"EPHEMERIS_TYPE":0,"CLASSIFICATION_TYPE":"U","NORAD_CAT_ID":21263,"ELEMENT_SET_NO":999,"REV_AT_EPOCH":81007,"BSTAR":8.3931e-5,"MEAN_MOTION_DOT":1.6e-6,"MEAN_MOTION_DDOT":0},{"OBJECT_NAME":"NOAA 13","OBJECT_ID":"1993-050A","EPOCH":"2026-03-04T20:04:53.831424","MEAN_MOTION":14.13634454,"ECCENTRICITY":0.001053,"INCLINATION":98.6928,"RA_OF_ASC_NODE":11.7194,"ARG_OF_PERICENTER":69.5111,"MEAN_ANOMALY":290.7191,"EPHEMERIS_TYPE":0,"CLASSIFICATION_TYPE":"U","NORAD_CAT_ID":22739,"ELEMENT_SET_NO":999,"REV_AT_EPOCH":67863,"BSTAR":0.00011487,"MEAN_MOTION_DOT":1.74e-6,"MEAN_MOTION_DDOT":0},{"OBJECT_NAME":"NOAA 14","OBJECT_ID":"1994-089A","EPOCH":"2026-03-04T19:14:34.230912","MEAN_MOTION":14.14653975,"ECCENTRICITY":0.0010044,"INCLINATION":98.5014,"RA_OF_ASC_NODE":38.249,"ARG_OF_PERICENTER":29.8223,"MEAN_ANOMALY":330.3521,"EPHEMERIS_TYPE":0,"CLASSIFICATION_TYPE":"U","NORAD_CAT_ID":23455,"ELEMENT_SET_NO":999,"REV_AT_EPOCH":60844,"BSTAR":6.9127e-5,"MEAN_MOTION_DOT":9.2e-7,"MEAN_MOTION_DDOT":0},{"OBJECT_NAME":"NOAA 15","OBJECT_ID":"1998-030A","EPOCH":"2026-03-04T18:58:52.203072","MEAN_MOTION":14.27110331,"ECCENTRICITY":0.0009159,"INCLINATION":98.5167,"RA_OF_ASC_NODE":87.2001,"ARG_OF_PERICENTER":296.2875,"MEAN_ANOMALY":63.7364,"EPHEMERIS_TYPE":0,"CLASSIFICATION_TYPE":"U","NORAD_CAT_ID":25338,"ELEMENT_SET_NO":999,"REV_AT_EPOCH":44640,"BSTAR":0.0001018,"MEAN_MOTION_DOT":2.05e-6,"MEAN_MOTION_DDOT":0},{"OBJECT_NAME":"NOAA 16","OBJECT_ID":"2000-055A","EPOCH":"2026-03-04T18:51:46.512000","MEAN_MOTION":14.1389662,"ECCENTRICITY":0.0009407,"INCLINATION":98.4707,"RA_OF_ASC_NODE":83.5441,"ARG_OF_PERICENTER":237.6863,"MEAN_ANOMALY":122.34,"EPHEMERIS_TYPE":0,"CLASSIFICATION_TYPE":"U","NORAD_CAT_ID":26536,"ELEMENT_SET_NO":999,"REV_AT_EPOCH":60897,"BSTAR":9.8097e-5,"MEAN_MOTION_DOT":1.45e-6,"MEAN_MOTION_DDOT":0}]
